[{"OBJECT_NAME":"NUSAT-44 (MARIA MITCHELL)","OBJECT_ID":"2024-043AA","EPOCH":"2026-03-09T22:12:18.524160","MEAN_MOTION":15.29764305,"ECCENTRICITY":0.0007331,"INCLINATION":97.5299,"RA_OF_ASC_NODE":207.7691,"ARG_OF_PERICENTER":214.9017,"MEAN_ANOMALY":145.1743,"EPHEMERIS_TYPE":0,"CLASSIFICATION_TYPE":"U","NORAD_CAT_ID":59122,"ELEMENT_SET_NO":999,"REV_AT_EPOCH":11209,"BSTAR":0.00061063193,"MEAN_MOTION_DOT":0.00017562,"MEAN_MOTION_DDOT":0},{"OBJECT_NAME":"STARLINK-31239","OBJECT_ID":"2024-117C","EPOCH":"2026-03-09T07:18:34.610400","MEAN_MOTION":15.30188017,"ECCENTRICITY":0.00014284,"INCLINATION":53.1627,"RA_OF_ASC_NODE":39.1898,"ARG_OF_PERICENTER":89.7347,"MEAN_ANOMALY":270.3818,"EPHEMERIS_TYPE":0,"CLASSIFICATION_TYPE":"U","NORAD_CAT_ID":60093,"ELEMENT_SET_NO":999,"REV_AT_EPOCH":9682,"BSTAR":-2.2951996e-5,"MEAN_MOTION_DOT":-1.039e-5,"MEAN_MOTION_DDOT":0}]
